OBJECT_NAME,OBJECT_ID,EPOCH,MEAN_MOTION,ECCENTRICITY,INCLINATION,RA_OF_ASC_NODE,ARG_OF_PERICENTER,MEAN_ANOMALY,EPHEMERIS_TYPE,CLASSIFICATION_TYPE,NORAD_CAT_ID,ELEMENT_SET_NO,REV_AT_EPOCH,BSTAR,MEAN_MOTION_DOT,MEAN_MOTION_DDOT
ONEWEB-0576,2023-043V,2026-07-06T14:13:39.254016,13.16595083,.0001979,87.9083,224.9217,88.8369,271.2989,0,U,56065,999,16151,-.16685E-3,-.51E-6,0
ONEWEB-0577,2023-043W,2026-07-06T14:22:47.269344,13.16595336,.0001569,87.9082,224.9179,75.3658,284.7646,0,U,56066,999,16154,-.75667E-4,-.16E-6,0
ONEWEB-0578,2023-043X,2026-07-06T15:10:31.314432,13.21825726,.0002259,87.9243,240.1037,89.2901,270.8492,0,U,56067,999,16080,.13499E-4,.19E-6,0
ONEWEB-0579,2023-043Y,2026-07-06T14:58:23.219904,13.21827537,.0001978,87.9247,240.1030,103.9702,256.1652,0,U,56068,999,16081,.1503E-3,.75E-6,0
ONEWEB-0581,2023-043Z,2026-07-06T14:31:54.158016,13.16594788,.0001622,87.9077,224.9278,83.8387,276.2928,0,U,56069,999,16151,-.13498E-3,-.39E-6,0
ONEWEB-0609,2023-043AA,2026-07-06T17:28:28.416288,13.15547073,.0002131,87.8991,255.3182,98.6585,261.4787,0,U,56070,999,15900,.17317E-3,.78E-6,0
ONEWEB-0613,2023-043AB,2026-07-06T17:25:03.661248,13.15547535,.0002106,87.8991,255.3310,106.1193,254.0169,0,U,56071,999,15900,.20461E-3,.9E-6,0
ONEWEB-0630,2023-043AC,2026-07-06T17:18:13.364064,13.15549149,.0002075,87.8997,255.3048,105.8301,254.3058,0,U,56072,999,15899,.18722E-3,.83E-6,0
ONEWEB-0632,2023-043AD,2026-07-06T17:11:22.722144,13.15548032,.0001877,87.8991,255.3229,96.8812,263.2532,0,U,56073,999,15899,.28681E-3,.121E-5,0
ONEWEB-0633,2023-043AE,2026-07-06T17:02:15.238176,13.15548491,.0002268,87.8997,255.3014,107.7842,252.3536,0,U,56074,999,15897,.18519E-3,.83E-6,0
ONEWEB-0634,2023-043AF,2026-07-06T16:41:42.914112,13.15547843,.0002347,87.8989,255.3429,95.0732,265.0666,0,U,56075,999,15896,-.11072E-3,-.29E-6,0
ONEWEB-0635,2023-043AG,2026-07-06T16:34:51.930048,13.15548006,.000182,87.8998,255.3079,95.2970,264.8368,0,U,56076,999,15899,-.23902E-3,-.77E-6,0
ONEWEB-0636,2023-043AH,2026-07-06T14:33:55.370304,13.15547281,.0001896,87.8999,255.3303,95.5316,264.6031,0,U,56077,999,15896,-.34571E-3,-.117E-5,0
ONEWEB-0637,2023-043AJ,2026-07-06T16:14:19.730400,13.15547530,.000209,87.8990,255.3319,90.5150,269.6220,0,U,56078,999,15899,-.38976E-3,-.134E-5,0
ONEWEB-0647,2023-043AK,2026-07-06T16:07:29.282880,13.15548508,.0001934,87.8992,255.3453,100.3230,259.8119,0,U,56079,999,15898,-.31604E-3,-.106E-5,0
ONEWEB-0651,2023-043AL,2026-07-06T19:39:41.275008,13.15547669,.0001914,87.8991,255.3092,92.5303,267.6046,0,U,56080,999,16020,-.29504E-4,.2E-7,0
ONEWEB-0718,2023-043AM,2026-07-06T15:53:48.037056,13.15548876,.0002563,87.8993,255.3207,97.3001,262.8421,0,U,56081,999,15899,-.66959E-4,-.12E-6,0
ONEWEB-0561,2023-068A,2026-07-06T16:00:41.588064,13.20771395,.0001679,87.9194,270.5618,101.1978,258.9344,0,U,56710,999,15207,-.65946E-3,-.255E-5,0
ONEWEB-0668,2023-068B,2026-07-06T13:55:25.398912,13.16594441,.0002505,87.9083,224.9207,85.6936,274.4482,0,U,56711,999,15433,.38474E-4,.28E-6,0
ONEWEB-0676,2023-068C,2026-07-06T15:56:15.794880,13.16594232,.0001788,87.9084,224.9103,89.3952,270.7384,0,U,56712,999,15426,-.19741E-3,-.63E-6,0
ONEWEB-0677,2023-068D,2026-07-06T17:32:51.194112,13.20771438,.0001996,87.9192,270.5406,88.0776,272.0586,0,U,56713,999,15238,.11184E-3,.58E-6,0
ONEWEB-0678,2023-068E,2026-07-06T16:57:41.153184,13.15547508,.0001935,87.9000,255.3061,106.8659,253.2683,0,U,56714,999,15185,.13659E-3,.64E-6,0
ONEWEB-0679,2023-068F,2026-07-06T14:56:58.668864,13.16593575,.0002201,87.9080,224.9098,79.8193,280.3186,0,U,56715,999,15428,.31351E-4,.25E-6,0
ONEWEB-0680,2023-068G,2026-07-06T16:49:48.575424,13.21825804,.0002431,87.9247,240.0894,85.0165,275.1247,0,U,56716,999,15367,.32007E-4,.26E-6,0
ONEWEB-0681,2023-068H,2026-07-06T16:21:57.346272,13.21824637,.0001276,87.9244,240.0937,81.9955,278.1324,0,U,56717,999,15366,.38819E-3,.173E-5,0
ONEWEB-0682,2023-068J,2026-07-06T17:31:54.990048,13.15548006,.0002362,87.9000,255.3016,87.0986,273.0414,0,U,56718,999,15202,.17844E-3,.8E-6,0
ONEWEB-0683,2023-068K,2026-07-06T16:16:36.729696,13.15548166,.0002287,87.9002,255.3125,95.1420,264.9971,0,U,56719,999,15198,-.44199E-3,-.154E-5,0
ONEWEB-0684,2023-068L,2026-07-06T16:28:01.474752,13.15548960,.0002651,87.8997,255.3003,128.6312,231.5056,0,U,56720,999,15181,-.11178E-3,-.29E-6,0
ONEWEB-0686,2023-068M,2026-07-06T13:59:59.013024,13.16593617,.0002412,87.9073,224.9391,96.8854,263.2552,0,U,56721,999,15426,-.61596E-4,-.11E-6,0
ONEWEB-0694,2023-068N,2026-07-06T14:09:06.013152,13.16593194,.0002418,87.9093,224.9064,86.3210,273.8197,0,U,56722,999,15432,-.17941E-3,-.56E-6,0
ONEWEB-0696,2023-068P,2026-07-06T17:15:56.471904,13.15549170,.0001847,87.8994,255.3303,112.5215,247.6111,0,U,56723,999,15193,.37451E-3,.154E-5,0
ONEWEB-0703,2023-068Q,2026-07-06T17:29:37.113792,13.15547893,.0001403,87.8993,255.3097,120.1130,240.0139,0,U,56724,999,15182,.3059E-3,.128E-5,0
ONEWEB-0721,2023-068R,2026-07-06T17:39:16.437024,13.22470047,.0001804,86.6755,79.2767,78.4132,281.7203,0,U,56725,999,16052,-.7416E-5,.11E-6,0
ONEWEB-0015,2024-188A,2026-07-06T11:02:19.968576,13.11414105,.0001727,87.8876,17.2548,71.5915,288.5401,0,U,61594,999,8698,-.14923929E-3,-.4E-6,0
ONEWEB-0687,2024-188B,2026-07-06T10:37:23.669184,13.17649342,.00021602,87.9131,2.0444,79.2755,280.8620,0,U,61595,999,8843,-.4887957E-5,.11E-6,0
ONEWEB-0688,2024-188C,2026-07-06T11:18:41.433696,13.17649958,.00017175,87.9133,2.0384,51.8036,308.3250,0,U,61596,999,8843,.21565022E-3,.97E-6,0
ONEWEB-0689,2024-188D,2026-07-06T11:51:09.334656,13.11417960,.00021492,87.8892,17.2089,86.7001,273.4373,0,U,61597,999,8698,-.48154537E-3,-.158E-5,0
ONEWEB-0690,2024-188E,2026-07-06T12:05:49.304832,13.11417461,.00013463,87.8889,17.2176,103.2459,256.8819,0,U,61598,999,8716,.64048372E-3,.24E-5,0
ONEWEB-0691,2024-188F,2026-07-06T11:58:29.339616,13.11417703,.00018873,87.8898,17.1290,76.1794,283.9544,0,U,61599,999,8701,.11740019E-3,.54E-6,0
ONEWEB-0692,2024-188G,2026-07-06T01:28:35.711616,13.11416414,.00024923,87.8879,17.3259,101.5034,258.6374,0,U,61600,999,8694,.13909056E-2,.506E-5,0
ONEWEB-0693,2024-188H,2026-07-06T11:35:42.749952,13.17649747,.00011441,87.9129,2.0553,104.5514,255.5745,0,U,61601,999,8842,.85525592E-4,.46E-6,0
ONEWEB-0695,2024-188J,2026-07-06T11:53:36.396096,13.11418288,.00023652,87.8881,17.2315,91.8600,268.2799,0,U,61602,999,8699,-.34020896E-3,-.108E-5,0
ONEWEB-0697,2024-188K,2026-07-06T01:40:47.959392,13.11414770,.0002421,87.8878,17.3066,103.4097,256.7301,0,U,61603,999,8692,.70998543E-3,.264E-5,0
ONEWEB-0698,2024-188L,2026-07-06T12:08:15.976608,13.11417613,.00020429,87.8879,17.2335,123.1254,237.0070,0,U,61604,999,8700,.88592554E-3,.327E-5,0
ONEWEB-0699,2024-188M,2026-07-06T01:48:46.478880,13.10372050,.00022237,87.8825,32.5024,101.7061,258.4316,0,U,61605,999,8578,-.13553954E-2,-.46E-5,0
ONEWEB-0700,2024-188N,2026-07-06T01:51:13.055616,13.10374884,.00023746,87.8842,32.4142,95.5772,264.5626,0,U,61606,999,8577,-.23151534E-3,-.68E-6,0
ONEWEB-0701,2024-188P,2026-07-06T02:15:41.548896,13.10373785,.00023435,87.8822,32.4985,104.9223,255.2164,0,U,61607,999,8578,.20593863E-2,.732E-5,0
ONEWEB-0702,2024-188Q,2026-07-06T11:24:18.156096,13.11415538,.00027647,87.8897,17.1490,101.1387,259.0052,0,U,61608,999,8701,-.13385132E-2,-.462E-5,0
ONEWEB-0704,2024-188R,2026-07-06T01:58:33.177216,13.10374678,.00027772,87.8828,32.4909,97.1980,262.9463,0,U,61609,999,8576,.47083376E-3,.177E-5,0
ONEWEB-0705,2024-188S,2026-07-06T02:05:54.704544,13.10375908,.00028309,87.8829,32.4956,81.1450,278.9998,0,U,61610,999,7793,.13969577E-2,.5E-5,0
ONEWEB-0706,2024-188T,2026-07-06T01:43:53.669280,13.10376014,.00024009,87.8824,32.5028,90.7508,269.3895,0,U,61611,999,8585,-.13861423E-2,-.471E-5,0
ONEWEB-0707,2024-188U,2026-07-06T01:53:39.702336,13.10375281,.00023924,87.8829,32.4963,90.7055,269.4347,0,U,61612,999,8579,.64570038E-4,.35E-6,0
ONEWEB-0708,2024-188V,2026-07-06T02:20:34.572768,13.10377901,.00022119,87.8818,32.5094,74.0464,286.0907,0,U,61613,999,8577,.2003927E-2,.712E-5,0
